SL-12 R/B(2)            
1 15772U 85042D   26157.68925808  .00000128  00000+0  78988-4 0  9992
2 15772  71.1086 259.6951 0035732 343.7567 120.5638 14.22004008127049
SL-14 R/B               
1 15945U 85069B   26158.13950839  .00000480  00000+0  51458-4 0  9990
2 15945  82.5264 300.8161 0017282 254.8771 105.0534 14.86507691186129
SL-16 R/B               
1 16182U 85097B   26158.19186970  .00000014  00000+0  31127-4 0  9992
2 16182  71.0037 312.1213 0005680 131.3032  41.0011 14.16612393 99903
SL-14 R/B               
1 16496U 86006B   26158.29400557  .00000632  00000+0  64345-4 0  9996
2 16496  82.5261 175.4234 0075700 336.7309  23.0486 14.86935800162521
COSMOS 1743             
1 16719U 86034A   26158.24553702  .00049014  00000+0  47723-3 0  9998
2 16719  82.5281 339.2962 0003506 318.9063  41.1933 15.66050384194238
SL-14 R/B               
1 16792U 86046B   26157.64606638  .00000384  00000+0  41353-4 0  9993
2 16792  82.4818 356.1373 0021689 295.7160  64.1817 14.85664022139617
SL-14 R/B               
1 16882U 86055B   26157.96598693  .00000438  00000+0  47535-4 0  9997
2 16882  82.5212  42.7426 0019894  40.4296 330.1767 14.85716018132620
AJISAI (EGS)            
1 16908U 86061A   26158.32574623 -.00000102  00000+0 -29801-4 0  9997
2 16908  50.0071 177.7196 0011273 155.5571 218.8013 12.44516709479169
SL-14 R/B               
1 17567U 87024B   26157.84915839  .00000384  00000+0  40903-4 0  9999
2 17567  82.5284   8.9686 0017418 329.8134  30.2077 14.86206301101377
COSMOS 1833             
1 17589U 87027A   26158.19770729  .00000300  00000+0  18607-3 0  9995
2 17589  70.9153 137.8661 0022556  71.8080 288.5494 14.13042482 22961
SL-16 R/B               
1 17590U 87027B   26157.55791721  .00000228  00000+0  13685-3 0  9991
2 17590  71.0029  89.2267 0005970 325.2093  34.8639 14.17171015 27934
SL-14 R/B               
1 17912U 87038B   26157.95727936  .00000369  00000+0  39890-4 0  9995
2 17912  82.5014 212.7076 0018080 226.3363 133.6356 14.85439251 92481
COSMOS 1844             
1 17973U 87041A   26157.57076126 -.00000101  00000+0 -26982-4 0  9996
2 17973  70.8988 206.7004 0033278 250.8672 108.8846 14.14570090 16150
SL-14 R/B               
1 18153U 87055B   26158.05332719  .00000469  00000+0  51059-4 0  9997
2 18153  82.4996 264.7816 0022140  79.1213 281.2493 14.85703837 83202
COSMOS 1867             
1 18187U 87060A   26158.00338829 -.00000028  00000+0  26964-4 0  9992
2 18187  65.0116  56.5791 0016293 282.0367  77.8892 14.31514682 32728
SL-14 R/B               
1 18749U 88001B   26157.58314999  .00000501  00000+0  55022-4 0  9998
2 18749  82.5123 111.7492 0016767 307.7939  52.1758 14.85601857 55229
COSMOS 1933             
1 18958U 88020A   26158.28601531  .00004441  00000+0  21298-3 0  9994
2 18958  82.5122 162.2400 0002531 228.3729 131.7288 15.18651243 63827
SL-3 R/B                
1 19046U 88032B   26157.97883729  .00004928  00000+0  22539-3 0  9991
2 19046  97.5254 141.0307 0023675 283.4061  76.4536 15.20763048 65678
SL-16 R/B               
1 19120U 88039B   26157.97430919  .00000147  00000+0  92357-4 0  9995
2 19120  71.0149 239.7530 0022797 208.1906 151.7987 14.19628725971054
COSMOS 1953             
1 19210U 88050A   26158.01168847  .00008459  00000+0  29116-3 0  9998
2 19210  82.5077  68.2936 0011260 158.3325 201.8394 15.29833382 51439
SL-8 R/B                
1 19257U 88053B   26157.70663177  .00000301  00000+0  10581-3 0  9997
2 19257  74.0477 308.3768 0019260 107.5146 263.7375 14.38963737989406
COSMOS 1975             
1 19573U 88093A   26157.68501644  .00007891  00000+0  27708-3 0  9999
2 19573  82.5200  28.2651 0010356 209.1672 150.8991 15.29189896 33007
SL-14 R/B               
1 19574U 88093B   26158.19130763  .00000534  00000+0  58376-4 0  9990
2 19574  82.5305 318.0302 0022167 101.3095  71.2644 14.85734392 14303
SL-16 R/B               
1 19650U 88102B   26158.18707638 -.00000014  00000+0  17258-4 0  9994
2 19650  71.0005 323.1810 0016114 239.1466 120.8073 14.16166729939564
INTERCOSMOS 24          
1 20261U 89080A   26157.69136349  .00000919  00000+0  26131-3 0  9992
2 20261  82.6075  46.4732 1188327  86.2375 287.3481 12.59644884678003
SL-14 R/B               
1 20262U 89080C   26158.16277828  .00000474  00000+0  14141-3 0  9998
2 20262  82.5918 115.7472 1229331 340.3373  15.3974 12.50563895671331
DELTA 1 R/B             
1 20323U 89089B   26158.28713984  .00000384  00000+0  10365-3 0  9990
2 20323  97.0640 351.4295 0068395 198.2662 161.6079 14.50724866908721
ARIANE 40 R/B           
1 20443U 90005H   26157.62142970  .00000267  00000+0  98237-4 0  9996
2 20443  98.2964 215.5656 0008919 300.8443  59.1867 14.39921906905602
DELTA 2 R/B(1)          
1 20453U 90008B   26157.11184448  .00100860  00000+0  79153-3 0  9995
2 20453  35.5996 309.6616 0068397   9.6562 350.5477 15.67094261939963
COSMOS 2058             
1 20465U 90010A   26157.54661974  .00003825  00000+0  22126-3 0  9993
2 20465  82.4665 319.8499 0010456  36.0110 324.1822 15.11943112955661
